name,住所,lat,lon,種別,備考
江南総合グラウンド,熊谷市押切2436,36.118946,139.337611,指定緊急避難場所(一時避難場所),【洪水時】〇、【地震時】○
江南総合公園,熊谷市板井377-1,36.108919,139.308365,指定緊急避難場所(広域避難場所),【洪水時】〇、【地震時】○
江南北小学校,熊谷市三本359,36.128035,139.336035,指定避難所兼指定緊急避難場所(第一避難所),【洪水時】〇、【地震時】○
江南南小学校,熊谷市小江川1881,36.1072035,139.3346382,指定避難所兼指定緊急避難場所(第一避難所),"【洪水時】〇、
【地震時】〇※土砂災害に関する指定緊急避難場所(兼 指定避難所兼指定緊急避難場所)を兼ねる"
江南中学校,熊谷市江南中央2-1-1,36.1160825,139.3369627,指定避難所兼指定緊急避難場所(第二避難所),【洪水時】〇、【地震時】○
江南保育所,熊谷市千代323-1,36.1179989,139.3348433,指定避難所兼指定緊急避難場所(第二避難所),【洪水時】〇、【地震時】○
江南体育館,熊谷市江南中央2-3-1,36.1152632,139.3364822,指定避難所兼指定緊急避難場所(第二避難所),【洪水時】〇、【地震時】×
江南農業総合センタ-,熊谷市成沢465-1,36.1270639,139.3457563,指定避難所兼指定緊急避難場所(第二避難所),【洪水時】〇、【地震時】×
江南農業研修センタ-,熊谷市板井671,36.1080174,139.3187865,指定避難所兼指定緊急避難場所(第二避難所),【洪水時】〇、【地震時】×
江南農村センタ-,熊谷市小江川1936-1,36.1048872,139.3325524,指定避難所兼指定緊急避難場所(第二避難所),【洪水時】〇、【地震時】×
江南コミュニティセンタ-,熊谷市成沢1138-1,36.1152601,139.3522509,指定避難所兼指定緊急避難場所(第二避難所),【洪水時】〇、【地震時】○
江南南児童クラブ,熊谷市須賀広599-1,36.106834,139.3360243,指定避難所兼指定緊急避難場所(第二避難所),【洪水時】〇、【地震時】○
江南総合文化会館「ピピア」(自主避難所),熊谷市千代325-1,36.1177823,139.3337072,指定避難所兼指定緊急避難場所(第二避難所),【洪水時】〇、【地震時】○
成沢会議所,熊谷市成沢348-1,36.1243005,139.3449148,指定避難所兼指定緊急避難場所(第二避難所),【洪水時】〇、【地震時】×
三本集会所,熊谷市三本717,36.129696,139.330612,指定避難所兼指定緊急避難場所(第二避難所),【洪水時】〇、【地震時】○
上新田集会所,熊谷市上新田227,36.131485,139.318231,指定避難所兼指定緊急避難場所(第二避難所),【洪水時】〇、【地震時】×
上押切集会所,熊谷市押切1056-1,36.134134,139.32378,指定避難所兼指定緊急避難場所(第二避難所),【洪水時】×、【地震時】○
下押切集会所,熊谷市押切313-3,36.1335324,139.3402062,指定避難所兼指定緊急避難場所(第二避難所),【洪水時】〇、【地震時】○
樋春集会所,熊谷市樋春1023-1,36.132631,139.349547,指定避難所兼指定緊急避難場所(第二避難所),【洪水時】〇、【地震時】×
樋春南集会所,熊谷市樋春555,36.1286192,139.3517227,指定避難所兼指定緊急避難場所(第二避難所),【洪水時】〇、【地震時】×
御正新田生活改善センタ-,熊谷市御正新田453-1,36.1234144,139.3528673,指定避難所兼指定緊急避難場所(第二避難所),【洪水時】〇、【地震時】×
大坂集会所,熊谷市御正新田1321-1,36.1166488,139.3609199,指定避難所兼指定緊急避難場所(第二避難所),【洪水時】〇、【地震時】×
須賀広集落センタ-,熊谷市須賀広243-1,36.1059035,139.3419684,指定避難所兼指定緊急避難場所(第二避難所),【洪水時】〇、【地震時】×
野原集会所,熊谷市野原622-1,36.1040395,139.364098,指定避難所兼指定緊急避難場所(第二避難所),【洪水時】〇、【地震時】×
野原西部集会所,熊谷市野原66-3,36.1036813,139.3524374,指定避難所兼指定緊急避難場所(第二避難所),【洪水時】×、【地震時】○
小江川集落センタ-,熊谷市小江川1403,36.1003684,139.3344164,指定避難所兼指定緊急避難場所(第二避難所),【洪水時】〇、【地震時】×
塩集会所,熊谷市塩142-1,36.102947,139.318003,指定避難所兼指定緊急避難場所(第二避難所),【洪水時】〇、【地震時】×
パ-クシティ集会所,熊谷市押切2653-95,36.111076,139.336626,指定避難所兼指定緊急避難場所(第二避難所),【洪水時】〇、【地震時】○
老人福祉センタ-　江南荘,熊谷市千代118,36.1249283,139.3315208,福祉避難所,
ダイアナデイサ-ビスセンタ-,熊谷市野原461-7,36.1019537,139.3610204,福祉避難所,
軽費老人ホ-ム　武蔵野ユ-トピアダイアナクラブ,熊谷市小江川1396,36.0994991,139.3344081,福祉避難所,
特別養護老人ホ-ム　虹の郷,熊谷市野原461-3,36.101898,139.360362,福祉避難所,
障害者支援施設　熊谷,熊谷市野原1064-1,36.10066,139.37209,福祉避難所,
障害者支援施設　江南愛の家,熊谷市野原245,36.10837,139.35512,福祉避難所,
障害者就労継続支援施設(B型)事業所　おにっこハウス　,熊谷市板井1220-1,36.11149,139.31555,福祉避難所,
妻沼消防署北広場,熊谷市妻沼1720,36.22266,139.374394,指定緊急避難場所(一時避難場所),【洪水時】×、【地震時】〇
妻沼東運動公園,熊谷市上須戸952-1,36.206294,139.399598,指定緊急避難場所(一時避難場所),【洪水時】×、【地震時】〇
さくら公園,熊谷市妻沼1720-4,36.222263,139.3752,指定緊急避難場所(一時避難場所),【洪水時】×、【地震時】〇
妻沼運動公園,熊谷市飯塚200-1,36.224975,139.357981,指定緊急避難場所(広域避難場所),【洪水時】×、【地震時】〇
妻沼小学校,熊谷市妻沼1492,36.2293866,139.3780212,指定避難所兼指定緊急避難場所(第一避難所),【洪水時】〇(2階以上)、【地震時】〇
男沼小学校,熊谷市妻沼台137-1,36.2350665,139.353262,指定避難所兼指定緊急避難場所(第一避難所),【洪水時】〇(2階以上)、【地震時】〇
太田小学校,熊谷市八木田5,36.2160654,139.3521937,指定避難所兼指定緊急避難場所(第一避難所),【洪水時】〇、【地震時】〇
長井小学校,熊谷市上根358,36.2098917,139.3874354,指定避難所兼指定緊急避難場所(第一避難所),【洪水時】〇(2階以上)、【地震時】〇
秦小学校,熊谷市葛和田831,36.2057515,139.4199818,指定避難所兼指定緊急避難場所(第一避難所),【洪水時】〇(3階以上)、【地震時】〇
妻沼南小学校,熊谷市弥藤吾704,36.2152408,139.3718671,指定避難所兼指定緊急避難場所(第一避難所),【洪水時】〇(2階以上)、【地震時】〇
小島小学校･小島中学校,熊谷市妻沼小島2111,36.2509817,139.3550855,指定避難所兼指定緊急避難場所(第一避難所),【洪水時】×、【地震時】〇
妻沼西中学校,熊谷市弥藤吾2359-2,36.226159,139.3644532,指定避難所兼指定緊急避難場所(第二避難所),【洪水時】〇(2階以上)、【地震時】〇
妻沼東中学校,熊谷市妻沼430-1,36.2238762,139.3868791,指定避難所兼指定緊急避難場所(第二避難所),【洪水時】〇(3階以上)、【地震時】〇
めぬま農業研修センター(自主避難所),熊谷市弥藤吾2440,36.224329,139.368217,指定避難所兼指定緊急避難場所(第二避難所),【洪水時】〇(2階以上)、【地震時】〇
妻沼高等学校,熊谷市弥藤吾480,36.2159798,139.3821189,指定避難所兼指定緊急避難場所(第二避難所),【洪水時】〇(2階以上)、【地震時】〇
妻沼中央公民館,熊谷市妻沼東1-1,36.2230206,139.381949,指定避難所兼指定緊急避難場所(第二避難所),【洪水時】〇(2階以上)、【地震時】×
太田公民館,熊谷市飯塚1410-1,36.2172014,139.3513354,指定避難所兼指定緊急避難場所(第二避難所),【洪水時】×、【地震時】〇
妻沼児童館,熊谷市弥藤吾692-1,36.2155908,139.3735419,指定避難所兼指定緊急避難場所(第二避難所),【洪水時】×、【地震時】〇
武道館,熊谷市江波363,36.2096112,139.3889214,指定避難所兼指定緊急避難場所(第二避難所),【洪水時】〇(2階以上)、【地震時】〇
妻沼勤労福祉会館,熊谷市妻沼1706-1,36.2225873,139.3766551,指定避難所兼指定緊急避難場所(第二避難所),【洪水時】〇(2階以上)、【地震時】〇
老人憩の家 めぬま荘(秦公民館),熊谷市葛和田922-1,36.202013,139.418721,指定避難所兼指定緊急避難場所(第二避難所),【洪水時】×、【地震時】〇
日向集会所,熊谷市日向481,36.1905143,139.4142387,指定避難所兼指定緊急避難場所(第二避難所),【洪水時】×、【地震時】○
上江袋集会所,熊谷市上江袋519-1,36.202051,139.354987,指定避難所兼指定緊急避難場所(第二避難所),【洪水時】×、【地震時】〇
西野集会所,熊谷市西野240-1,36.2027866,139.3729288,指定避難所兼指定緊急避難場所(第二避難所),【洪水時】×、【地震時】〇
善ヶ島集会所,熊谷市善ケ島195-5,36.2152664,139.3998392,指定避難所兼指定緊急避難場所(第二避難所),【洪水時】×、【地震時】〇
（市外）太田市沢野行政センター,群馬県太田市高林西町882-5,36.259116,139.365857,指定避難所兼指定緊急避難場所(第二避難所),【洪水時】〇(2階以上)、【地震時】×
（市外）太田市立南小学校,群馬県太田市高林東町1372,36.255754,139.376414,指定避難所兼指定緊急避難場所(第二避難所),【洪水時】〇、【地震時】×
（市外）太田市立南中学校,群馬県太田市高林北町955-1,36.26205,139.363576,指定避難所兼指定緊急避難場所(第二避難所),【洪水時】〇(2階以上)、【地震時】×
熊谷市社会福祉協議会　老人デイサ-ビスセンタ-,熊谷市弥藤吾1753,36.216168,139.371892,福祉避難所,
老人福祉センタ-　ひかわ荘,熊谷市弥藤吾1755,36.2163323,139.3723086,福祉避難所,
特別養護老人ホ-ム　愛心園,熊谷市上根268,36.213841,139.381591,福祉避難所,
ケアハウス　しあわせの里,熊谷市原井169,36.203253,139.351436,福祉避難所,
玉井公園,熊谷市玉井1973-314,36.17812,139.343611,指定緊急避難場所(一時避難場所),【洪水時】×、【地震時】〇
外原公園,熊谷市拾六間774-2,36.171419,139.312166,指定緊急避難場所(一時避難場所),【洪水時】〇、【地震時】〇
寿公園,熊谷市拾六間788-29,36.170665,139.308166,指定緊急避難場所(一時避難場所),【洪水時】〇、【地震時】〇
籠原第1公園,熊谷市新堀1154-12,36.17417,139.315016,指定緊急避難場所(一時避難場所),【洪水時】〇、【地震時】〇
美土里町公園,熊谷市美土里町1-20,36.1697,139.313673,指定緊急避難場所(一時避難場所),【洪水時】〇、【地震時】〇
別府第1公園,熊谷市別府2-83,36.185784,139.332831,指定緊急避難場所(一時避難場所),【洪水時】〇、【地震時】〇
別府第2公園,熊谷市別府4-44,36.182735,139.339911,指定緊急避難場所(一時避難場所),【洪水時】×、【地震時】〇
別府第3公園,熊谷市別府5-51,36.180231,139.335655,指定緊急避難場所(一時避難場所),【洪水時】〇、【地震時】〇
玉井稲荷木第1公園,熊谷市玉井南3-19,36.174145,139.345821,指定緊急避難場所(一時避難場所),【洪水時】×、【地震時】〇
玉井稲荷木第2公園,熊谷市玉井南2-88,36.176345,139.346897,指定緊急避難場所(一時避難場所),【洪水時】×、【地震時】〇
玉井在家第1公園,熊谷市玉井3-69,36.180113,139.340546,指定緊急避難場所(一時避難場所),【洪水時】×、【地震時】〇
玉井在家第2公園,熊谷市玉井2-24,36.178647,139.337182,指定緊急避難場所(一時避難場所),【洪水時】×、【地震時】〇
玉井在家第3公園,熊谷市玉井5-71,36.177553,139.339356,指定緊急避難場所(一時避難場所),【洪水時】×、【地震時】〇
新堀第1公園,籠原中央第一土地区画整理事業地内,36.174846,139.333681,指定緊急避難場所(一時避難場所),【洪水時】〇、【地震時】〇
新堀第2公園,籠原中央第一土地区画整理事業地内,36.17595943,139.3325669,指定緊急避難場所(一時避難場所),【洪水時】〇、【地震時】〇
新堀第3公園,籠原中央第一土地区画整理事業地内,36.17804335,139.3338261,指定緊急避難場所(一時避難場所),【洪水時】〇、【地震時】〇
新堀第4公園,籠原中央第一土地区画整理事業地内,36.1771088,139.3310123,指定緊急避難場所(一時避難場所),【洪水時】〇、【地震時】〇
新堀第5公園,籠原中央第一土地区画整理事業地内,36.17890417,139.3321373,指定緊急避難場所(一時避難場所),【洪水時】〇、【地震時】〇
広瀬川原公園,熊谷市瀬南68,36.145467,139.355008,指定緊急避難場所(一時避難場所),【洪水時】×、【地震時】〇
籠原中央公園,籠原南2-102,36.168979,139.328016,指定緊急避難場所(一時避難場所),【洪水時】〇、【地震時】〇
籠原南第1公園,熊谷市籠原南1-303,36.172941,139.327541,指定緊急避難場所(一時避難場所),【洪水時】〇、【地震時】〇
籠原南第2公園,熊谷市籠原南1-56,36.171759,139.330814,指定緊急避難場所(一時避難場所),【洪水時】〇、【地震時】〇
籠原南第3公園,籠原南3-141,36.171257,139.325034,指定緊急避難場所(一時避難場所),【洪水時】〇、【地震時】〇
籠原南第4公園,籠原南3-76,36.169805,139.325788,指定緊急避難場所(一時避難場所),【洪水時】〇、【地震時】〇
マミ-マ-ト籠原店(駐車場),熊谷市新堀新田523,36.172753,139.3222,指定緊急避難場所(一時避難場所),【洪水時】〇、【地震時】〇
別府沼公園,熊谷市西別府1456,36.194913,139.335375,指定緊急避難場所(広域避難場所),【洪水時】×、【地震時】〇
熊谷さくら運動公園,熊谷市小島157-1,36.154673,139.34571,指定緊急避難場所(広域避難場所),【洪水時】〇、【地震時】〇
大麻生小学校,熊谷市大麻生51,36.1494278,139.3395361,指定避難所兼指定緊急避難場所(第一避難所),【洪水時】〇、【地震時】〇
玉井小学校,熊谷市高柳116-1,36.17294,139.345008,指定避難所兼指定緊急避難場所(第一避難所),【洪水時】〇、【地震時】〇
別府小学校,熊谷市西別府29-1,36.1935454,139.3414399,指定避難所兼指定緊急避難場所(第一避難所),【洪水時】〇、【地震時】〇
三尻小学校,熊谷市三ヶ尻2862-1,36.1588236,139.3195618,指定避難所兼指定緊急避難場所(第一避難所),【洪水時】〇、【地震時】〇
籠原小学校,熊谷市新堀1143,36.1737163,139.3180364,指定避難所兼指定緊急避難場所(第一避難所),【洪水時】〇、【地震時】〇
新堀小学校,熊谷市新堀182,36.1728669,139.3382935,指定避難所兼指定緊急避難場所(第一避難所),【洪水時】〇、【地震時】〇
玉井中学校,熊谷市久保島888,36.168276,139.3453626,指定避難所兼指定緊急避難場所(第二避難所),【洪水時】〇(2階以上)、【地震時】〇
大麻生中学校,熊谷市大麻生35-1,36.1509859,139.3406998,指定避難所兼指定緊急避難場所(第二避難所),【洪水時】〇、【地震時】〇
別府中学校,熊谷市西別府1817,36.1875737,139.3348793,指定避難所兼指定緊急避難場所(第二避難所),【洪水時】〇、【地震時】〇
三尻中学校,熊谷市三ヶ尻2743,36.1620233,139.321792,指定避難所兼指定緊急避難場所(第二避難所),【洪水時】〇、【地震時】〇
熊谷西高等学校,熊谷市三ヶ尻2066,36.16397,139.331589,指定避難所兼指定緊急避難場所(第二避難所),【洪水時】〇、【地震時】〇
熊谷商業高等学校,熊谷市広瀬800,36.1492752,139.3560965,指定避難所兼指定緊急避難場所(第二避難所),【洪水時】〇(2階以上)、【地震時】〇
熊谷工業高等学校,熊谷市小島820,36.1566134,139.3549572,指定避難所兼指定緊急避難場所(第二避難所),【洪水時】〇、【地震時】〇
玉井保育所,熊谷市玉井2105-1,36.1786415,139.3455817,指定避難所兼指定緊急避難場所(第二避難所),【洪水時】〇、【地震時】×
籠原保育所,熊谷市新堀1124,36.1748858,139.3247053,指定避難所兼指定緊急避難場所(第二避難所),【洪水時】〇、【地震時】×
籠原公民館･西児童館,熊谷市新堀新田576-1,36.1724469,139.3150895,指定避難所兼指定緊急避難場所(第二避難所),【洪水時】〇、【地震時】×
新堀公民館,熊谷市新堀202-1,36.1729669,139.337238,指定避難所兼指定緊急避難場所(第二避難所),【洪水時】×、【地震時】〇
別府公民館,熊谷市西別府2252-1,36.19361036,139.3353343,指定避難所兼指定緊急避難場所(第二避難所),【洪水時】〇、【地震時】〇
別府体育館,熊谷市西別府2252-1,36.19320114,139.3354896,指定避難所兼指定緊急避難場所(第二避難所),【洪水時】〇、【地震時】×
熊谷文化創造館「さくらめいと」,熊谷市拾六間111-1,36.1655758,139.3272999,指定避難所兼指定緊急避難場所(第二避難所),【洪水時】〇、【地震時】〇
老人福祉センタ-　別府荘,熊谷市西別府583-1,36.195664,139.339098,福祉避難所,
熊谷特別支援学校,熊谷市川原明戸605,36.1410007,139.3177098,福祉避難所,
障害者支援施設　新光苑,熊谷市小島527,36.1548272,139.3425912,福祉避難所,
中島助産院,熊谷市大麻生422-1,36.147695,139.327923,福祉避難所,
特別養護老人ホ-ム　ル-エ,熊谷市川原明戸471-3,36.141782,139.31577,福祉避難所,
特別養護老人ホ-ム　のぞみの里,熊谷市拾六間299-1,36.166739,139.323614,福祉避難所,
特別養護老人ホ-ム　はなぶさ苑,熊谷市玉井1145-1,36.170706,139.350093,福祉避難所,
特別養護老人ホ-ム　永寿苑,熊谷市西別府1599-5,36.191587,139.331674,福祉避難所,
老人福祉施設　熊谷ホ-ム,熊谷市新堀1140,36.174747,139.320302,福祉避難所,
養護老人ホ-ム　熊谷ホ-ム,熊谷市新堀1140,36.174357,139.319831,福祉避難所,
放課後等デイサービス事業所　シェルフかごはら第2教室,熊谷市新堀919-10,36.17939,139.33268,福祉避難所,
大幡公園,熊谷市柿沼780-1,36.166733,139.378278,指定緊急避難場所(一時避難場所),【洪水時】〇、【地震時】〇
ショッピングモールビッグベア(駐車場),代1183-2,36.174058,139.367208,指定緊急避難場所(一時避難場所),【洪水時】〇、【地震時】〇
熊谷スポ-ツ文化公園,熊谷市上川上810,36.167453,139.403331,指定緊急避難場所(広域避難場所),"【洪水時※ラグビ-場・周辺広場が対象】〇
、【地震時】〇"
中条小学校,熊谷市上中条892-1,36.1809151,139.4039266,指定避難所兼指定緊急避難場所(第一避難所),【洪水時】〇(2階以上)、【地震時】〇
奈良小学校,熊谷市下奈良561-3,36.1862193,139.3791458,指定避難所兼指定緊急避難場所(第一避難所),【洪水時】〇、【地震時】〇
大幡小学校,熊谷市代681,36.1695517,139.3731998,指定避難所兼指定緊急避難場所(第一避難所),【洪水時】〇、【地震時】〇
中条中学校,熊谷市今井539-1,36.1772822,139.4045406,指定避難所兼指定緊急避難場所(第二避難所),【洪水時】〇(2階以上)、【地震時】〇
奈良中学校,熊谷市上奈良1038,36.1826694,139.3670357,指定避難所兼指定緊急避難場所(第二避難所),【洪水時】〇、【地震時】〇
大幡中学校,熊谷市原島834-1,36.1635162,139.3747584,指定避難所兼指定緊急避難場所(第二避難所),【洪水時】〇、【地震時】〇
農業活性化センタ-,熊谷市中奈良897,36.190977,139.3771763,指定避難所兼指定緊急避難場所(第二避難所),【洪水時】〇、【地震時】〇
大幡児童館,熊谷市代597-4,36.1700406,139.3764496,指定避難所兼指定緊急避難場所(第二避難所),【洪水時】〇、【地震時】〇
熊谷市スポ-ツ･文化村「くまぴあ」(創作展示棟を除く。),熊谷市原島315,36.1707458,139.3667668,指定避難所兼指定緊急避難場所(第二避難所),【洪水時】〇、【地震時】〇
熊谷市スポ-ツ･文化村「くまぴあ」(創作展示棟),熊谷市原島315,36.171132,139.366751,福祉避難所,
特別養護老人ホ-ム　玉の緒,熊谷市大塚179-2,36.141782,139.31577,福祉避難所,
特別養護老人ホ-ム　彩華園,熊谷市上川上266,36.166706,139.414937,福祉避難所,
障害者支援施設　花づな,熊谷市四方寺91,36.18535,139.3954,福祉避難所,
障害者就労継続支援(B型)事業所　ララク遊,熊谷市下奈良1561,36.19851,139.37498,福祉避難所,
放課後等デイサービス事業所　くりのみ,熊谷市下奈良498-1,36.18671,139.38476,福祉避難所,
久下第1公園,熊谷市久下1-42,36.114512,139.426221,指定緊急避難場所(一時避難場所),【洪水時】×、【地震時】〇
久下第2公園,熊谷市久下1-167,36.116983,139.427522,指定緊急避難場所(一時避難場所),【洪水時】×、【地震時】〇
久下第3公園,熊谷市久下3-103,36.116204,139.430317,指定緊急避難場所(一時避難場所),【洪水時】×、【地震時】〇
久下第4公園,熊谷市久下4-171,36.11984,139.433979,指定緊急避難場所(一時避難場所),【洪水時】×、【地震時】〇
佐谷田公園,熊谷市佐谷田371-3,36.13359,139.409469,指定緊急避難場所(一時避難場所),【洪水時】×、【地震時】〇
雀宮第1公園,熊谷市上之1306,36.160372,139.397501,指定緊急避難場所(一時避難場所),【洪水時】×、【地震時】〇
上之公園,熊谷市上之1774-2,36.15411,139.398103,指定緊急避難場所(一時避難場所),【洪水時】×、【地震時】〇
平戸公園,熊谷市平戸493,36.141524,139.409537,指定緊急避難場所(一時避難場所),【洪水時】×、【地震時】〇
熊谷流通センタ-内　中央緑地,熊谷市問屋町3-1800-59,36.131361,139.426289,指定緊急避難場所(一時避難場所),【洪水時】×、【地震時】〇
成田小学校,熊谷市上之2810-1,36.154129,139.406078,指定避難所兼指定緊急避難場所(第一避難所),【洪水時】〇、【地震時】〇
佐谷田小学校,熊谷市佐谷田1030,36.1341284,139.4144007,指定避難所兼指定緊急避難場所(第一避難所),【洪水時】〇(2階以上)、【地震時】〇
久下小学校,熊谷市久下808,36.1217554,139.4181093,指定避難所兼指定緊急避難場所(第一避難所),【洪水時】〇(2階以上)、【地震時】〇
星宮小学校,熊谷市池上733,36.157274,139.4318386,指定避難所兼指定緊急避難場所(第一避難所),【洪水時】〇(2階以上)、【地震時】〇
熊谷東中学校,熊谷市上之3177,36.1463133,139.4149246,指定避難所兼指定緊急避難場所(第二避難所),【洪水時】〇(2階以上)、【地震時】〇
雀宮児童館,熊谷市上之1305-1,36.1604449,139.3968538,指定避難所兼指定緊急避難場所(第二避難所),【洪水時】×、【地震時】〇
老人福祉センタ-　上之荘,熊谷市上之3022-1,36.1460772,139.4131804,福祉避難所,
特別養護老人ホ-ム　いずみ熊谷,熊谷市平戸212-1,36.143983,139.412372,福祉避難所,
ケアハウス　神根苑,熊谷市太井399-1,36.123975,139.430769,福祉避難所,
ケアハウス　クイ-ンズビラ,熊谷市太井1777-1,36.117689,139.421495,福祉避難所,
万吉弥太郎公園,熊谷市万吉2502-115,36.127899,139.372025,指定緊急避難場所(一時避難場所),"【洪水時】×
、【地震時】〇"
吉岡小学校,熊谷市万吉2103,36.1202429,139.3706749,指定避難所兼指定緊急避難場所(第一避難所),【洪水時】〇、【地震時】〇
吉岡中学校,熊谷市平塚新田479-2,36.113038,139.372323,指定避難所兼指定緊急避難場所(第二避難所),"【洪水時】〇、
【地震時】〇※土砂災害に関する指定緊急避難場所(兼 指定避難所兼指定緊急避難場所)を兼ねる"
立正大学,熊谷市万吉1700,36.1080945,139.3644201,指定避難所兼指定緊急避難場所(第二避難所),【洪水時】〇、【地震時】〇※避難所としてのみ指定
老人憩の家　吉岡荘,熊谷市村岡1891-4,36.1249008,139.3809242,福祉避難所,
特別養護老人ホ-ム　立正たちばなホ-ム,熊谷市万吉1756-130,36.11141,139.365647,福祉避難所,
特別養護老人ホ-ム　まごころの里,熊谷市村岡50,36.11964,139.376471,福祉避難所,
大境公園,熊谷市船木台1-4,36.0741201,139.421172,指定緊急避難場所(一時避難場所),【洪水時】〇、【地震時】〇
大林公園,熊谷市船木台2-4,36.0761282,139.4170112,指定緊急避難場所(一時避難場所),【洪水時】〇、【地震時】〇
船木台中央公園,熊谷市船木台3-4-1,36.0773364,139.4182889,指定緊急避難場所(一時避難場所),【洪水時】〇、【地震時】〇
阿諏訪野公園,熊谷市船木台5-3-1,36.0807137,139.4164779,指定緊急避難場所(一時避難場所),【洪水時】〇、【地震時】〇
楓山公園,熊谷市船木台5-13-4,36.07878,139.414118,指定緊急避難場所(一時避難場所),【洪水時】〇、【地震時】〇
市田小学校,熊谷市小泉243-1,36.110742,139.3976874,指定避難所兼指定緊急避難場所(第一避難所),【洪水時】〇(2階以上)、【地震時】〇
吉見小学校,熊谷市箕輪7,36.0881515,139.4126364,指定避難所兼指定緊急避難場所(第一避難所),【洪水時】〇(2階以上)、【地震時】〇
大里中学校,熊谷市中曽根815-1,36.1029685,139.4049509,指定避難所兼指定緊急避難場所(第二避難所),【洪水時】〇(3階以上)、【地震時】〇
吉見保育所,熊谷市向谷373-1,36.0958893,139.4114586,指定避難所兼指定緊急避難場所(第二避難所),【洪水時】×、【地震時】〇
大里体育館,熊谷市津田21,36.102248,139.410985,指定避難所兼指定緊急避難場所(第二避難所),【洪水時】×、【地震時】〇
大里生涯学習センタ-「あすねっと」,熊谷市津田1-1,36.1031938,139.4110779,指定避難所兼指定緊急避難場所(第二避難所),【洪水時】×、【地震時】〇
大里ふれあいセンタ-(自主避難所),熊谷市船木台3-4-4,36.0774502,139.4175973,指定避難所兼指定緊急避難場所(第二避難所),"【洪水時】〇、
【地震時】〇※土砂災害に関する指定緊急避難所(兼 指定避難所兼指定緊急避難場所)を兼ねる"
箕輪集会所,熊谷市箕輪305-1,36.0821579,139.4121505,指定避難所兼指定緊急避難場所(第二避難所),【洪水時】〇、【地震時】〇
春日文化センタ-,熊谷市小八林103-7,36.0767755,139.4266103,指定避難所兼指定緊急避難場所(第二避難所),【洪水時】×、【地震時】〇
健康スポ-ツセンタ-,熊谷市津田1788-1,36.0976675,139.4269818,福祉避難所,
特別養護老人ホ-ム　サンヴィレッジ,熊谷市津田1560-1,36.095227,139.425571,福祉避難所,
障害者支援施設　ながい寮,熊谷市上恩田514-2,36.11703,139.37904,福祉避難所,
障害者生活介護事業所　ライフアシスト紡,熊谷市上恩田466-5,36.118,139.37942,福祉避難所,
中央公園,熊谷市宮町2-39,36.147252,139.390079,指定緊急避難場所(一時避難場所),【洪水時】×、【地震時】〇
宮町公園,熊谷市宮町2-68,36.1462653,139.3871004,指定緊急避難場所(一時避難場所),【洪水時】×、【地震時】〇
東公園,熊谷市銀座3-1,36.142645,139.39559,指定緊急避難場所(一時避難場所),【洪水時】×、【地震時】〇
荒川公園,熊谷市河原町2-173,36.136429,139.38532,指定緊急避難場所(一時避難場所),【洪水時】×、【地震時】〇
赤城公園,熊谷市赤城町1-16,36.146458,139.359496,指定緊急避難場所(一時避難場所),【洪水時】×、【地震時】〇
松風公園,熊谷市赤城町1-167,36.146914,139.364192,指定緊急避難場所(一時避難場所),【洪水時】×、【地震時】〇
堤公園,熊谷市赤城町2-120,36.145913,139.367447,指定緊急避難場所(一時避難場所),【洪水時】×、【地震時】〇
宮前公園,熊谷市宮前町1-29,36.141526,139.382905,指定緊急避難場所(一時避難場所),【洪水時】×、【地震時】〇
本石公園,熊谷市本石1-10,36.148724,139.379336,指定緊急避難場所(一時避難場所),【洪水時】×、【地震時】〇
万平公園,熊谷市万平町1-1,36.135904,139.390436,指定緊急避難場所(一時避難場所),【洪水時】×、【地震時】〇
曙公園,熊谷市曙町4-8,36.135468,139.394933,指定緊急避難場所(一時避難場所),【洪水時】×、【地震時】〇
見晴公園,熊谷市見晴町460,36.1409,139.373048,指定緊急避難場所(一時避難場所),【洪水時】×、【地震時】〇
石原公園,熊谷市石原1652-70,36.148218,139.371803,指定緊急避難場所(一時避難場所),【洪水時】×、【地震時】〇
南運動場(伊勢町ふれあい公園),熊谷市伊勢町94,36.144363,139.37304,指定緊急避難場所(一時避難場所),【洪水時】×、【地震時】〇
箱田第1公園,熊谷市中央2-219,36.15371,139.394444,指定緊急避難場所(一時避難場所),【洪水時】×、【地震時】〇
箱田第2公園,熊谷市中央3-169,36.155912,139.396687,指定緊急避難場所(一時避難場所),【洪水時】×、【地震時】〇
箱田第4公園,熊谷市中央1-148,36.154601,139.391401,指定緊急避難場所(一時避難場所),【洪水時】×、【地震時】〇
雀宮第3公園,熊谷市肥塚591,36.162797,139.39453,指定緊急避難場所(一時避難場所),【洪水時】×、【地震時】〇
雀宮第4公園,熊谷市肥塚702-1,36.160945,139.391026,指定緊急避難場所(一時避難場所),【洪水時】×、【地震時】〇
雀宮第5公園,熊谷市肥塚550-1,36.162353,139.396874,指定緊急避難場所(一時避難場所),【洪水時】×、【地震時】〇
駅東第1公園,熊谷市銀座2-137,36.138624,139.396388,指定緊急避難場所(一時避難場所),【洪水時】×、【地震時】〇
駅東第3公園,熊谷市銀座7-154,36.136072,139.399581,指定緊急避難場所(一時避難場所),【洪水時】×、【地震時】〇
イオン熊谷店,熊谷市本石2-135,36.1456,139.378029,指定緊急避難場所(一時避難場所),【洪水時】〇(立体駐車場の2階以上が対象)、【地震時】〇
ウエルシア熊谷箱田二丁目店(駐車場),熊谷市箱田2-20-48,36.15184,139.3863,指定緊急避難場所(一時避難場所),【洪水時】×、【地震時】〇
八木橋一番街立体駐車場,熊谷市本石1-250-1,36.147214,139.38085,指定緊急避難場所(一時避難場所),【洪水時】〇(立体駐車場の3階以上が対象)、【地震時】〇
八木橋パーク仲町,熊谷市仲町34,36.147402,139.383284,指定緊急避難場所(一時避難場所),【洪水時】〇(立体駐車場の4階以上が対象)、【地震時】〇
熊谷荒川緑地,熊谷市熊谷2553-2,36.136097,139.382414,指定緊急避難場所(広域避難場所),【洪水時】×、【地震時】〇
熊谷東小学校,熊谷市末広3-4-1,36.1455656,139.3961299,指定避難所兼指定緊急避難場所(第一避難所),【洪水時】〇(2階以上)、【地震時】〇
熊谷西小学校 ,熊谷市中央1-1,36.152553,139.389989,指定避難所兼指定緊急避難場所(第一避難所),【洪水時】〇、【地震時】〇
石原小学校,熊谷市石原3-1-1,36.15167,139.377239,指定避難所兼指定緊急避難場所(第一避難所),【洪水時】〇(2階以上)、【地震時】〇
熊谷南小学校,熊谷市榎町343,36.1392601,139.3789318,指定避難所兼指定緊急避難場所(第一避難所),【洪水時】〇(2階以上)、【地震時】〇
桜木小学校,熊谷市桜木町2-33-1,36.1363079,139.3873676,指定避難所兼指定緊急避難場所(第一避難所),【洪水時】〇(2階以上)、【地震時】〇
荒川中学校,熊谷市月見町2-174,36.1443428,139.370582,指定避難所兼指定緊急避難場所(第二避難所),【洪水時】〇(2階以上)、【地震時】〇
富士見中学校,熊谷市中央3-103,36.1562035,139.3950821,指定避難所兼指定緊急避難場所(第二避難所),【洪水時】〇(2階以上)、【地震時】〇
大原中学校,熊谷市大原3-4-1,36.1537143,139.3771866,指定避難所兼指定緊急避難場所(第二避難所),【洪水時】〇(2階以上)、【地震時】〇
熊谷女子高等学校,熊谷市末広2-131,36.1443017,139.3920749,指定避難所兼指定緊急避難場所(第二避難所),【洪水時】×、【地震時】〇
熊谷農業高等学校,熊谷市大原3-3-1,36.1545948,139.3777171,指定避難所兼指定緊急避難場所(第二避難所),【洪水時】〇(2階以上)、【地震時】〇
熊谷高等学校,熊谷市大原1-9-1,36.1541144,139.3792865,指定避難所兼指定緊急避難場所(第二避難所),【洪水時】〇(2階以上)、【地震時】〇
荒川保育所,熊谷市伊勢町300,36.1437568,139.3754845,指定避難所兼指定緊急避難場所(第二避難所),【洪水時】〇(2階以上)、【地震時】×
曙町保育所,熊谷市曙町3-63,36.1341722,139.3946391,指定避難所兼指定緊急避難場所(第二避難所),【洪水時】〇(2階以上)、【地震時】×
箱田保育所,熊谷市中央1-46,36.1531509,139.3911634,指定避難所兼指定緊急避難場所(第二避難所),【洪水時】〇(2階以上)、【地震時】×
銀座保育所,熊谷市末広4-4-22,36.1458268,139.3997433,指定避難所兼指定緊急避難場所(第二避難所),【洪水時】〇(2階以上)、【地震時】×
石原保育所,熊谷市石原3-121-1,36.1506812,139.3759924,指定避難所兼指定緊急避難場所(第二避難所),【洪水時】〇(2階以上)、【地震時】×
市民ホ-ル,熊谷市仲町19,36.1475317,139.3829422,指定避難所兼指定緊急避難場所(第二避難所),【洪水時】〇(2階以上)、【地震時】×
荒川公民館,熊谷市宮前町1-24-1,36.1416767,139.3823093,指定避難所兼指定緊急避難場所(第二避難所),【洪水時】〇(2階以上)、【地震時】〇
商工会館,熊谷市宮町2-39,36.1469014,139.3881697,指定避難所兼指定緊急避難場所(第二避難所),【洪水時】〇(2階以上)、【地震時】×
市民体育館,熊谷市桜木町2-33-5,36.1363995,139.3866204,指定避難所兼指定緊急避難場所(第二避難所),【洪水時】〇(2階以上)、【地震時】×
文化センタ-,熊谷市桜木町2-33-2,36.1371272,139.3867009,指定避難所兼指定緊急避難場所(第二避難所),【洪水時】〇(2階以上)、【地震時】〇
婦人児童館･石原児童館,熊谷市本石1-10,36.1486315,139.3797118,指定避難所兼指定緊急避難場所(第二避難所),【洪水時】〇(2階以上)、【地震時】×
勤労青少年ホ-ム,熊谷市石原1407-1,36.1491032,139.3624628,指定避難所兼指定緊急避難場所(第二避難所),【洪水時】〇(2階以上)、【地震時】×
勤労会館,熊谷市石原1410-1,36.148856,139.3620739,指定避難所兼指定緊急避難場所(第二避難所),【洪水時】〇(2階以上)、【地震時】×
箱田高齢者･児童ふれあいセンタ-,熊谷市中央1-149,36.1542619,139.391205,福祉避難所,
障害福祉会館,熊谷市宮町2-65,36.1480762,139.3868586,福祉避難所,
障害者就労継続支援(A型)事業所　プラスアイ,熊谷市曙町3-67-1アケボノマンション1Ｆ,36.13415,139.39529,福祉避難所,
放課後等デイサービス事業所　ハッピーテラス熊谷教室,熊谷市銀座1-19,36.14302,139.39299,福祉避難所,
